OBJECT_NAME,OBJECT_ID,EPOCH,MEAN_MOTION,ECCENTRICITY,INCLINATION,RA_OF_ASC_NODE,ARG_OF_PERICENTER,MEAN_ANOMALY,EPHEMERIS_TYPE,CLASSIFICATION_TYPE,NORAD_CAT_ID,ELEMENT_SET_NO,REV_AT_EPOCH,BSTAR,MEAN_MOTION_DOT,MEAN_MOTION_DDOT
ONEWEB-0346,2021-083AC,2025-12-06T15:31:40.029312,13.18686487,.00017692,87.9180,13.7118,116.4359,243.6955,0,U,49212,999,20460,.81143784E-4,.45E-6,0
ONEWEB-0348,2021-083AD,2025-12-06T09:19:56.471520,13.20770682,.00012456,87.9187,312.8904,92.1268,268.0008,0,U,49213,999,21136,.3703878E-4,.28E-6,0
ONEWEB-0350,2021-083AE,2025-12-06T14:52:40.672416,13.13470324,.00014099,87.8979,358.4965,91.0806,269.0485,0,U,49214,999,20565,-.65386404E-3,-.226E-5,0
ONEWEB-0351,2021-083AF,2025-12-06T09:10:39.183744,13.20773942,.00022683,87.9197,312.8879,62.8524,297.2840,0,U,49215,999,21132,.14559257E-3,.72E-6,0
ONEWEB-0352,2021-083AG,2025-12-06T14:24:39.300768,13.13469721,.00019742,87.8970,358.5243,81.3305,278.8048,0,U,49216,999,20574,.45506193E-4,.29E-6,0
ONEWEB-0354,2021-083AH,2025-12-06T15:14:28.208544,13.20769698,.00015529,87.9198,312.8365,83.7471,276.3839,0,U,49217,999,21139,.17307185E-3,.83E-6,0
ONEWEB-0355,2021-083AJ,2025-12-06T13:16:35.381856,13.13471580,.00016374,87.8973,358.5462,84.6475,275.4841,0,U,49218,999,20561,-.50370869E-3,-.171E-5,0
ONEWEB-0357,2021-083AK,2025-12-06T15:09:55.548288,13.20773834,.00018041,87.9195,312.8335,79.1826,280.9510,0,U,49219,999,21139,.20146005E-3,.95E-6,0
JILIN-1 GAOFEN 2D,2021-086A,2025-12-06T14:39:23.614272,15.08476391,.00360825,97.6296,99.0925,83.7761,276.7576,0,U,49256,999,23166,.61612291E-3,.9689E-4,0
SHIYAN-10 01 (SY-10 01),2021-087A,2025-12-04T23:59:22.408224,2.00639078,.69727615,63.0917,242.8089,269.8607,17.3430,0,U,49258,999,3063,0,.688E-5,0
LANDSAT 9,2021-088A,2025-12-06T15:32:54.264192,14.57120995,.00010945,98.2101,48.8470,93.8360,266.2963,0,U,49260,999,22296,.21199334E-3,.91E-5,0
CS1,2021-088B,2025-12-06T15:09:13.548384,15.28586004,.00148242,97.4058,39.4203,49.8001,310.4534,0,U,49261,999,23094,.8374233E-3,.23334E-3,0
CS2,2021-088C,2025-12-06T15:03:10.232064,15.29740712,.00123435,97.4107,41.3113,54.4301,305.8088,0,U,49262,999,23101,.81825586E-3,.23598E-3,0
CUTE,2021-088D,2025-12-06T14:39:10.055520,15.58086538,.00044803,97.4361,63.1878,298.4913,61.5891,0,U,49263,999,23234,.52558923E-3,.39535E-3,0
CUPID,2021-088E,2025-12-06T14:27:08.498016,15.22565966,.00137952,97.4161,39.1888,28.4923,331.7064,0,U,49264,999,23084,.59567802E-3,.13808E-3,0
ONEWEB-0332,2021-090A,2025-12-06T06:14:29.236704,13.14502519,.00019894,87.8978,328.1545,85.4372,274.6985,0,U,49279,999,20223,.17193572E-3,.77E-6,0
ONEWEB-0347,2021-090B,2025-12-06T07:39:57.186432,13.20773165,.00021031,87.9187,312.9066,87.8877,272.2497,0,U,49280,999,20558,.19949218E-3,.94E-6,0
ONEWEB-0349,2021-090C,2025-12-06T08:25:22.816128,13.20774688,.00017936,87.9183,312.8995,80.8331,279.3005,0,U,49281,999,20437,.38559722E-3,.17E-5,0
ONEWEB-0353,2021-090D,2025-12-06T06:03:03.193920,13.14503650,.00020202,87.8988,328.1409,86.9985,273.1375,0,U,49282,999,20223,-.33635374E-4,0,0
ONEWEB-0356,2021-090E,2025-12-06T08:23:07.055808,13.20770230,.00021035,87.9197,312.8914,109.9816,250.1544,0,U,49283,999,20437,.43830079E-3,.191E-5,0
ONEWEB-0358,2021-090F,2025-12-06T09:06:17.746848,13.20770575,.00017179,87.9195,312.8866,87.6208,272.5122,0,U,49284,999,20510,.70724667E-4,.42E-6,0
ONEWEB-0359,2021-090G,2025-12-06T09:01:45.765696,13.20772231,.00013616,87.9190,312.8870,82.9296,277.1992,0,U,49285,999,20508,.87680903E-4,.49E-6,0
ONEWEB-0360,2021-090H,2025-12-06T05:09:58.006944,13.20772330,.000169,87.9189,312.9276,82.4652,277.6674,0,U,49286,999,20437,-.59920644E-4,-.11E-6,0
ONEWEB-0361,2021-090J,2025-12-06T08:20:51.559872,13.20773105,.00017609,87.9190,312.8971,89.9630,270.1705,0,U,49287,999,20484,.3715001E-3,.164E-5,0
ONEWEB-0362,2021-090K,2025-12-06T10:49:21.291168,13.19724451,.00017429,87.9191,343.3366,80.5498,279.5831,0,U,49288,999,20149,.19598337E-3,.91E-6,0
ONEWEB-0363,2021-090L,2025-12-06T08:43:35.494464,13.20771097,.00018019,87.9199,312.8913,97.2024,262.9314,0,U,49289,999,20485,.32288399E-3,.144E-5,0
ONEWEB-0364,2021-090M,2025-12-06T15:05:23.856576,13.20770691,.00018373,87.9188,312.8627,88.4330,271.7013,0,U,49290,999,20602,.21866228E-3,.102E-5,0
ONEWEB-0365,2021-090N,2025-12-06T11:03:00.248256,13.19724024,.00018488,87.9210,343.2986,88.0295,272.1050,0,U,49291,999,20100,.83427892E-4,.46E-6,0
ONEWEB-0366,2021-090P,2025-12-06T09:37:42.980160,13.14503703,.00017045,87.8979,328.1283,88.8059,271.3266,0,U,49292,999,20223,.110172E-3,.54E-6,0
ONEWEB-0367,2021-090Q,2025-12-06T08:41:18.897792,13.20770223,.00018859,87.9199,312.8911,78.1614,281.9731,0,U,49293,999,20437,.40600482E-3,.178E-5,0
ONEWEB-0368,2021-090R,2025-12-06T15:19:02.919072,13.20770603,.00025158,87.9188,312.8663,95.1146,265.0274,0,U,49294,999,20556,.18468646E-3,.88E-6,0
ONEWEB-0369,2021-090S,2025-12-06T07:17:48.881472,13.19723377,.00018387,87.9199,343.3578,88.3412,271.7931,0,U,49295,999,20097,-.37178302E-4,-.2E-7,0
ONEWEB-0370,2021-090T,2025-12-06T14:22:12.798336,13.20770161,.00016274,87.9191,312.8489,76.1392,283.9922,0,U,49296,999,20444,.12437673E-3,.64E-6,0
ONEWEB-0371,2021-090U,2025-12-06T12:56:43.410048,13.19724012,.00017767,87.9198,343.2981,85.3127,274.8209,0,U,49297,999,20104,.11400849E-3,.59E-6,0
ONEWEB-0372,2021-090V,2025-12-06T08:38:49.183008,13.20770921,.00019503,87.9189,312.8967,83.0379,277.0976,0,U,49298,999,20438,-.29127302E-3,-.105E-5,0
ONEWEB-0373,2021-090W,2025-12-06T09:17:39.547392,13.20774358,.00016841,87.9185,312.9043,84.9655,275.1670,0,U,49299,999,20557,-.5804887E-5,.11E-6,0
ONEWEB-0374,2021-090X,2025-12-06T09:19:25.557600,13.14504779,.00019816,87.8985,328.1092,103.5096,256.6254,0,U,49300,999,20223,-.46898963E-3,-.161E-5,0
ONEWEB-0375,2021-090Y,2025-12-06T08:59:29.150880,13.20808956,.00017283,87.9183,312.8874,101.4588,258.6739,0,U,49301,999,20507,-.13322286E-2,-.529E-5,0
ONEWEB-0376,2021-090Z,2025-12-06T07:26:54.762720,13.19729875,.00020463,87.9205,343.3311,86.7885,273.3482,0,U,49302,999,20101,-.1794964E-2,-.706E-5,0
ONEWEB-0377,2021-090AA,2025-12-06T14:06:29.596320,13.20773535,.00016214,87.9197,312.8453,83.7673,276.3645,0,U,49303,999,20509,.11057923E-3,.58E-6,0
ONEWEB-0378,2021-090AB,2025-12-06T09:11:03.208128,13.20770201,.000178,87.9193,312.9009,88.7360,271.3977,0,U,49304,999,20433,.10562513E-3,.56E-6,0
ONEWEB-0379,2021-090AC,2025-12-06T05:33:20.791296,13.14500175,.00018314,87.8987,328.1490,90.3114,269.8225,0,U,49305,999,20221,-.85277632E-3,-.303E-5,0
ONEWEB-0380,2021-090AD,2025-12-06T11:00:43.620480,13.19724085,.00015789,87.9199,343.3239,93.9809,266.1504,0,U,49306,999,20100,.14424713E-3,.71E-6,0
ONEWEB-0381,2021-090AE,2025-12-06T04:56:18.360384,13.20769652,.00016767,87.9196,312.9244,91.0557,269.0769,0,U,49307,999,20435,.77241064E-4,.44E-6,0
ONEWEB-0382,2021-090AF,2025-12-06T08:16:17.882688,13.20773985,.00018441,87.9200,312.8925,94.2679,265.8665,0,U,49308,999,20436,.28009126E-3,.127E-5,0
ONEWEB-0383,2021-090AG,2025-12-06T09:03:27.302112,13.14503225,.00018983,87.8989,328.1038,91.7116,268.4231,0,U,49309,999,20226,-.37062415E-3,-.125E-5,0
ONEWEB-0384,2021-090AH,2025-12-06T04:28:50.562912,13.20798206,.00020147,87.9208,312.9593,99.5841,260.5520,0,U,49310,999,20435,.2255609E-4,.22E-6,0
ONEWEB-0385,2021-090AJ,2025-12-06T15:21:17.426592,13.20769435,.00018319,87.9187,312.8390,89.3602,270.7741,0,U,49311,999,20438,.22622716E-3,.105E-5,0
ONEWEB-0386,2021-090AK,2025-12-06T08:29:56.334336,13.20769721,.00019202,87.9200,312.8792,90.9155,269.2198,0,U,49312,999,20436,.29957523E-3,.135E-5,0
ONEWEB-0387,2021-090AL,2025-12-06T08:07:13.935936,13.20778977,.00015779,87.9189,312.9287,90.0231,270.1083,0,U,49313,999,20436,-.25671871E-2,-.1031E-4,0
ONEWEB-0388,2021-090AM,2025-12-06T10:53:53.614464,13.19724034,.00018067,87.9188,343.3260,94.6207,265.5132,0,U,49314,999,20099,.1634148E-3,.78E-6,0
2021-091B,2021-091B,2025-12-06T14:20:00.195936,15.19123819,.00106836,97.4442,166.1922,318.5104,41.5318,0,U,49316,999,22976,.35495803E-3,.7398E-4,0
SHIJIAN-21 (SJ-21),2021-094A,2025-12-06T18:03:11.210976,1.00240517,.0056979,4.6879,62.4302,170.6426,240.4005,0,U,49330,999,343,0,-.349E-5,0
SES-17,2021-095A,2025-12-05T20:13:35.010048,1.00272080,.00014271,0.0195,17.5652,221.8867,71.7384,0,U,49332,999,1591,0,-.263E-5,0
SYRACUSE 4A,2021-095B,2025-12-06T17:18:19.310112,1.00269560,.0001505,0.0135,332.0533,274.9567,133.8302,0,U,49333,999,1601,0,.141E-5,0
QZS-1R (MICHIBIKI-1R),2021-096A,2025-12-05T14:57:38.876832,1.00259301,.07539341,37.0620,82.4658,271.1853,80.5969,0,U,49336,999,1507,0,-.26E-5,0
JILIN-1 GAOFEN 2F,2021-097A,2025-12-06T14:23:21.062112,15.05844709,.00200094,97.6497,102.8462,158.6809,201.5256,0,U,49338,999,22731,.59281239E-3,.8584E-4,0
YAOGAN-32 02A,2021-099A,2025-12-06T15:25:06.127392,14.63801260,.00015128,98.2658,109.0897,103.5717,256.5654,0,U,49383,999,21819,.42024794E-3,.2144E-4,0
YAOGAN-32 02B,2021-099B,2025-12-06T15:24:57.126240,14.63798616,.00012596,98.2673,109.3299,98.8048,261.3297,0,U,49384,999,21819,.41675198E-3,.2126E-4,0
SDGSAT 1,2021-100A,2025-12-06T14:52:24.663360,15.19456718,.00102493,97.2926,29.4805,251.6288,108.3833,0,U,49387,999,22667,.30721986E-3,.6457E-4,0
YAOGAN-35 01A,2021-101A,2025-12-06T14:54:26.926272,15.22878102,.00048254,34.9917,50.6147,78.2557,281.8698,0,U,49390,999,22746,.65823421E-3,.15801E-3,0
YAOGAN-35 01C,2021-101D,2025-12-06T14:45:49.178592,15.23245287,.00064447,35.0062,35.7717,48.6081,311.5187,0,U,49393,999,22763,.32439264E-3,.7846E-4,0
TEIKYOSAT-4 (OORURI),2021-102B,2025-12-06T15:10:58.172736,15.08602898,.00109193,97.3903,12.4617,231.0261,128.9995,0,U,49396,999,22368,.28533796E-3,.4407E-4,0
RAISE 2,2021-102C,2025-12-06T14:07:40.956672,15.18662785,.00078356,97.3497,13.7987,233.8037,126.2473,0,U,49397,999,22417,.59401917E-3,.12263E-3,0
Z-SAT,2021-102E,2025-12-06T15:21:58.823424,15.16348724,.0016802,97.3585,16.7673,193.4130,166.6659,0,U,49399,999,22424,.432126E-3,.8349E-4,0
HIBARI,2021-102F,2025-12-06T14:26:27.641184,15.27067272,.00133585,97.3531,24.0035,158.2618,201.9191,0,U,49400,999,22475,.69990759E-3,.18587E-3,0
